<?xml version="1.0" encoding="UTF-8"?>
<ndm xmlns:xsi="http://www.w3.org/2001/XMLSchema-instance" xsi:noNamespaceSchemaLocation="https://sanaregistry.org/r/ndmxml_unqualified/ndmxml-2.0.0-master-2.0.xsd">
<omm id="CCSDS_OMM_VERS" version="2.0">
<header><CREATION_DATE/><ORIGINATOR/></header><body><segment><metadata><OBJECT_NAME>GLOBALSTAR M035 [-]</OBJECT_NAME><OBJECT_ID>1999-037A</OBJECT_ID><CENTER_NAME>EARTH</CENTER_NAME><REF_FRAME>TEME</REF_FRAME><TIME_SYSTEM>UTC</TIME_SYSTEM><MEAN_ELEMENT_THEORY>SGP4</MEAN_ELEMENT_THEORY></metadata><data><meanElements><EPOCH>2024-02-11T11:06:23.493888</EPOCH><MEAN_MOTION>11.04528760</MEAN_MOTION><ECCENTRICITY>.0013567</ECCENTRICITY><INCLINATION>51.9956</INCLINATION><RA_OF_ASC_NODE>71.5426</RA_OF_ASC_NODE><ARG_OF_PERICENTER>263.2010</ARG_OF_PERICENTER><MEAN_ANOMALY>246.5807</MEAN_ANOMALY></meanElements><tleParameters><EPHEMERIS_TYPE>0</EPHEMERIS_TYPE><CLASSIFICATION_TYPE>U</CLASSIFICATION_TYPE><NORAD_CAT_ID>25851</NORAD_CAT_ID><ELEMENT_SET_NO>999</ELEMENT_SET_NO><REV_AT_EPOCH>4192</REV_AT_EPOCH><BSTAR>.22393E-2</BSTAR><MEAN_MOTION_DOT>-.4E-7</MEAN_MOTION_DOT><MEAN_MOTION_DDOT>0</MEAN_MOTION_DDOT></tleParameters></data></segment></body></omm>
<omm id="CCSDS_OMM_VERS" version="2.0">
<header><CREATION_DATE/><ORIGINATOR/></header><body><segment><metadata><OBJECT_NAME>GLOBALSTAR M032 [-]</OBJECT_NAME><OBJECT_ID>1999-037B</OBJECT_ID><CENTER_NAME>EARTH</CENTER_NAME><REF_FRAME>TEME</REF_FRAME><TIME_SYSTEM>UTC</TIME_SYSTEM><MEAN_ELEMENT_THEORY>SGP4</MEAN_ELEMENT_THEORY></metadata><data><meanElements><EPOCH>2024-02-11T03:46:43.703328</EPOCH><MEAN_MOTION>11.19050205</MEAN_MOTION><ECCENTRICITY>.0010341</ECCENTRICITY><INCLINATION>51.9954</INCLINATION><RA_OF_ASC_NODE>291.3775</RA_OF_ASC_NODE><ARG_OF_PERICENTER>58.9278</ARG_OF_PERICENTER><MEAN_ANOMALY>301.2536</MEAN_ANOMALY></meanElements><tleParameters><EPHEMERIS_TYPE>0</EPHEMERIS_TYPE><CLASSIFICATION_TYPE>U</CLASSIFICATION_TYPE><NORAD_CAT_ID>25852</NORAD_CAT_ID><ELEMENT_SET_NO>999</ELEMENT_SET_NO><REV_AT_EPOCH>7970</REV_AT_EPOCH><BSTAR>-.52341E-3</BSTAR><MEAN_MOTION_DOT>-.83E-6</MEAN_MOTION_DOT><MEAN_MOTION_DDOT>0</MEAN_MOTION_DDOT></tleParameters></data></segment></body></omm>
<omm id="CCSDS_OMM_VERS" version="2.0">
<header><CREATION_DATE/><ORIGINATOR/></header><body><segment><metadata><OBJECT_NAME>GLOBALSTAR M051 [-]</OBJECT_NAME><OBJECT_ID>1999-037C</OBJECT_ID><CENTER_NAME>EARTH</CENTER_NAME><REF_FRAME>TEME</REF_FRAME><TIME_SYSTEM>UTC</TIME_SYSTEM><MEAN_ELEMENT_THEORY>SGP4</MEAN_ELEMENT_THEORY></metadata><data><meanElements><EPOCH>2024-02-11T13:57:29.153952</EPOCH><MEAN_MOTION>11.42195481</MEAN_MOTION><ECCENTRICITY>.0001981</ECCENTRICITY><INCLINATION>51.9786</INCLINATION><RA_OF_ASC_NODE>146.8173</RA_OF_ASC_NODE><ARG_OF_PERICENTER>76.8604</ARG_OF_PERICENTER><MEAN_ANOMALY>283.2427</MEAN_ANOMALY></meanElements><tleParameters><EPHEMERIS_TYPE>0</EPHEMERIS_TYPE><CLASSIFICATION_TYPE>U</CLASSIFICATION_TYPE><NORAD_CAT_ID>25853</NORAD_CAT_ID><ELEMENT_SET_NO>999</ELEMENT_SET_NO><REV_AT_EPOCH>7621</REV_AT_EPOCH><BSTAR>-.59432E-3</BSTAR><MEAN_MOTION_DOT>-.96E-6</MEAN_MOTION_DOT><MEAN_MOTION_DDOT>0</MEAN_MOTION_DDOT></tleParameters></data></segment></body></omm>
<omm id="CCSDS_OMM_VERS" version="2.0">
<header><CREATION_DATE/><ORIGINATOR/></header><body><segment><metadata><OBJECT_NAME>GLOBALSTAR M030 [-]</OBJECT_NAME><OBJECT_ID>1999-037D</OBJECT_ID><CENTER_NAME>EARTH</CENTER_NAME><REF_FRAME>TEME</REF_FRAME><TIME_SYSTEM>UTC</TIME_SYSTEM><MEAN_ELEMENT_THEORY>SGP4</MEAN_ELEMENT_THEORY></metadata><data><meanElements><EPOCH>2024-02-11T05:13:51.321504</EPOCH><MEAN_MOTION>11.55088496</MEAN_MOTION><ECCENTRICITY>.0003421</ECCENTRICITY><INCLINATION>51.9909</INCLINATION><RA_OF_ASC_NODE>345.0832</RA_OF_ASC_NODE><ARG_OF_PERICENTER>246.8587</ARG_OF_PERICENTER><MEAN_ANOMALY>113.1869</MEAN_ANOMALY></meanElements><tleParameters><EPHEMERIS_TYPE>0</EPHEMERIS_TYPE><CLASSIFICATION_TYPE>U</CLASSIFICATION_TYPE><NORAD_CAT_ID>25854</NORAD_CAT_ID><ELEMENT_SET_NO>999</ELEMENT_SET_NO><REV_AT_EPOCH>9319</REV_AT_EPOCH><BSTAR>.70365E-3</BSTAR><MEAN_MOTION_DOT>-.42E-6</MEAN_MOTION_DOT><MEAN_MOTION_DDOT>0</MEAN_MOTION_DDOT></tleParameters></data></segment></body></omm>
<omm id="CCSDS_OMM_VERS" version="2.0">
<header><CREATION_DATE/><ORIGINATOR/></header><body><segment><metadata><OBJECT_NAME>GLOBALSTAR M048 [-]</OBJECT_NAME><OBJECT_ID>1999-041A</OBJECT_ID><CENTER_NAME>EARTH</CENTER_NAME><REF_FRAME>TEME</REF_FRAME><TIME_SYSTEM>UTC</TIME_SYSTEM><MEAN_ELEMENT_THEORY>SGP4</MEAN_ELEMENT_THEORY></metadata><data><meanElements><EPOCH>2024-02-11T09:11:55.253760</EPOCH><MEAN_MOTION>11.33843006</MEAN_MOTION><ECCENTRICITY>.0013185</ECCENTRICITY><INCLINATION>51.9376</INCLINATION><RA_OF_ASC_NODE>63.3110</RA_OF_ASC_NODE><ARG_OF_PERICENTER>54.6603</ARG_OF_PERICENTER><MEAN_ANOMALY>50.1721</MEAN_ANOMALY></meanElements><tleParameters><EPHEMERIS_TYPE>0</EPHEMERIS_TYPE><CLASSIFICATION_TYPE>U</CLASSIFICATION_TYPE><NORAD_CAT_ID>25872</NORAD_CAT_ID><ELEMENT_SET_NO>999</ELEMENT_SET_NO><REV_AT_EPOCH>6919</REV_AT_EPOCH><BSTAR>.23572E-3</BSTAR><MEAN_MOTION_DOT>-.61E-6</MEAN_MOTION_DOT><MEAN_MOTION_DDOT>0</MEAN_MOTION_DDOT></tleParameters></data></segment></body></omm>
<omm id="CCSDS_OMM_VERS" version="2.0">
<header><CREATION_DATE/><ORIGINATOR/></header><body><segment><metadata><OBJECT_NAME>GLOBALSTAR M043 [-]</OBJECT_NAME><OBJECT_ID>1999-041C</OBJECT_ID><CENTER_NAME>EARTH</CENTER_NAME><REF_FRAME>TEME</REF_FRAME><TIME_SYSTEM>UTC</TIME_SYSTEM><MEAN_ELEMENT_THEORY>SGP4</MEAN_ELEMENT_THEORY></metadata><data><meanElements><EPOCH>2024-02-11T14:31:35.214816</EPOCH><MEAN_MOTION>11.25674303</MEAN_MOTION><ECCENTRICITY>.0013207</ECCENTRICITY><INCLINATION>51.9389</INCLINATION><RA_OF_ASC_NODE>150.8361</RA_OF_ASC_NODE><ARG_OF_PERICENTER>191.0894</ARG_OF_PERICENTER><MEAN_ANOMALY>270.3641</MEAN_ANOMALY></meanElements><tleParameters><EPHEMERIS_TYPE>0</EPHEMERIS_TYPE><CLASSIFICATION_TYPE>U</CLASSIFICATION_TYPE><NORAD_CAT_ID>25874</NORAD_CAT_ID><ELEMENT_SET_NO>999</ELEMENT_SET_NO><REV_AT_EPOCH>6751</REV_AT_EPOCH><BSTAR>-.6099E-3</BSTAR><MEAN_MOTION_DOT>-.89E-6</MEAN_MOTION_DOT><MEAN_MOTION_DDOT>0</MEAN_MOTION_DDOT></tleParameters></data></segment></body></omm>

</ndm>
