GLOBALSTAR M035 [-]     
1 25851U 99037A   24042.46277192 -.00000004  00000+0  22393-2 0  9994
2 25851  51.9956  71.5426 0013567 263.2010 246.5807 11.04528760 41921
GLOBALSTAR M032 [-]     
1 25852U 99037B   24042.15745027 -.00000083  00000+0 -52341-3 0  9993
2 25852  51.9954 291.3775 0010341  58.9278 301.2536 11.19050205 79706
GLOBALSTAR M051 [-]     
1 25853U 99037C   24042.58158743 -.00000096  00000+0 -59432-3 0  9996
2 25853  51.9786 146.8173 0001981  76.8604 283.2427 11.42195481 76211
GLOBALSTAR M030 [-]     
1 25854U 99037D   24042.21795511 -.00000042  00000+0  70365-3 0  9995
2 25854  51.9909 345.0832 0003421 246.8587 113.1869 11.55088496 93192
GLOBALSTAR M048 [-]     
1 25872U 99041A   24042.38327840 -.00000061  00000+0  23572-3 0  9993
2 25872  51.9376  63.3110 0013185  54.6603  50.1721 11.33843006 69193
GLOBALSTAR M043 [-]     
1 25874U 99041C   24042.60526869 -.00000089  00000+0 -60990-3 0  9998
2 25874  51.9389 150.8361 0013207 191.0894 270.3641 11.25674303 67516
